{"type": "FeatureCollection", "features": [ {"type": "Feature", "properties": {"norad_id": 34529, "name": "IRIDIUM 33 DEB", "group": "iridium-33-debris", "lat": -83.93677891992576, "lon": -103.83484680620946, "alt_km": 762.4282553445864, "timestamp": "2025-12-03T08:58:46.387516+00:00", "meta": {"OBJECT_NAME": "IRIDIUM 33 DEB", "OBJECT_ID": "1997-051HW", "EPOCH": "2025-12-03T04:25:06.114720", "MEAN_MOTION": 14.40603135, "ECCENTRICITY": 0.0003664, "INCLINATION": 86.3649, "RA_OF_ASC_NODE": 39.4847, "ARG_OF_PERICENTER": 211.6368, "MEAN_ANOMALY": 148.4611, "EPHEMERIS_TYPE": 0, "CLASSIFICATION_TYPE": "U", "NORAD_CAT_ID": 34529, "ELEMENT_SET_NO": 999, "REV_AT_EPOCH": 88004, "BSTAR": 0.00016704, "MEAN_MOTION_DOT": 5.52e-06, "MEAN_MOTION_DDOT": 0}, "tle": {"line1": "1 34529U 97051HW  25337.18409855  .00000552  00000+0  16704-3 0  9997", "line2": "2 34529  86.3649  39.4847 0003664 211.6368 148.4611 14.40603135880044"}}, "geometry": {"type": "Point", "coordinates": [-103.83484680620946, -83.93677891992576]}}, {"type": "Feature", "properties": {"norad_id": 34538, "name": "IRIDIUM 33 DEB", "group": "iridium-33-debris", "lat": 35.046156132605866, "lon": 12.27482014070495, "alt_km": 728.1002512052783, "timestamp": "2025-12-03T08:58:46.387527+00:00", "meta": {"OBJECT_NAME": "IRIDIUM 33 DEB", "OBJECT_ID": "1997-051JF", "EPOCH": "2025-12-03T02:26:55.665024", "MEAN_MOTION": 14.42554654, "ECCENTRICITY": 0.0034017, "INCLINATION": 86.2782, "RA_OF_ASC_NODE": 9.7771, "ARG_OF_PERICENTER": 0.3731, "MEAN_ANOMALY": 62.3752, "EPHEMERIS_TYPE": 0, "CLASSIFICATION_TYPE": "U", "NORAD_CAT_ID": 34538, "ELEMENT_SET_NO": 999, "REV_AT_EPOCH": 87617, "BSTAR": 0.0011695, "MEAN_MOTION_DOT": 3.925e-05, "MEAN_MOTION_DDOT": 0}, "tle": {"line1": "1 34538U 97051JF  25337.10203316  .00003925  00000+0  11695-2 0  9993", "line2": "2 34538  86.2782   9.7771 0034017   0.3731  62.3752 14.42554654876172"}}, "geometry": {"type": "Point", "coordinates": [12.27482014070495, 35.046156132605866]}}, {"type": "Feature", "properties": {"norad_id": 34540, "name": "IRIDIUM 33 DEB", "group": "iridium-33-debris", "lat": 76.36918396747483, "lon": -32.67436095997823, "alt_km": 642.7449081228251, "timestamp": "2025-12-03T08:58:46.387537+00:00", "meta": {"OBJECT_NAME": "IRIDIUM 33 DEB", "OBJECT_ID": "1997-051JH", "EPOCH": "2025-12-02T23:06:26.517024", "MEAN_MOTION": 14.74974705, "ECCENTRICITY": 0.0014764, "INCLINATION": 86.3092, "RA_OF_ASC_NODE": 312.0761, "ARG_OF_PERICENTER": 195.1731, "MEAN_ANOMALY": 219.1113, "EPHEMERIS_TYPE": 0, "CLASSIFICATION_TYPE": "U", "NORAD_CAT_ID": 34540, "ELEMENT_SET_NO": 999, "REV_AT_EPOCH": 88877, "BSTAR": 0.0022389, "MEAN_MOTION_DOT": 0.00015115, "MEAN_MOTION_DDOT": 0}, "tle": {"line1": "1 34540U 97051JH  25336.96280691  .00015115  00000+0  22389-2 0  9996", "line2": "2 34540  86.3092 312.0761 0014764 195.1731 219.1113 14.74974705888779"}}, "geometry": {"type": "Point", "coordinates": [-32.67436095997823, 76.36918396747483]}}, {"type": "Feature", "properties": {"norad_id": 34648, "name": "IRIDIUM 33 DEB", "group": "iridium-33-debris", "lat": -33.27345638364177, "lon": 108.09972931416678, "alt_km": 915.9542263610438, "timestamp": "2025-12-03T08:58:46.387548+00:00", "meta": {"OBJECT_NAME": "IRIDIUM 33 DEB", "OBJECT_ID": "1997-051JZ", "EPOCH": "2025-12-01T03:11:38.418720", "MEAN_MOTION": 14.1087899, "ECCENTRICITY": 0.01868529, "INCLINATION": 86.3903, "RA_OF_ASC_NODE": 286.6295, "ARG_OF_PERICENTER": 334.6513, "MEAN_ANOMALY": 24.5588, "EPHEMERIS_TYPE": 0, "CLASSIFICATION_TYPE": "U", "NORAD_CAT_ID": 34648, "ELEMENT_SET_NO": 999, "REV_AT_EPOCH": 84797, "BSTAR": 0.0079356223, "MEAN_MOTION_DOT": 0.00016788, "MEAN_MOTION_DDOT": 0}, "tle": {"line1": "1 34648U 97051JZ  25335.13308355  .00016788  00000+0  79356-2 0  9994", "line2": "2 34648  86.3903 286.6295 0186852 334.6513  24.5588 14.10878990847973"}}, "geometry": {"type": "Point", "coordinates": [108.09972931416678, -33.27345638364177]}}, {"type": "Feature", "properties": {"norad_id": 34651, "name": "IRIDIUM 33 DEB", "group": "iridium-33-debris", "lat": 34.437442862016745, "lon": -37.996131293186764, "alt_km": 800.0651623117528, "timestamp": "2025-12-03T08:58:46.387559+00:00", "meta": {"OBJECT_NAME": "IRIDIUM 33 DEB", "OBJECT_ID": "1997-051KC", "EPOCH": "2025-12-02T05:19:54.206688", "MEAN_MOTION": 14.25531146, "ECCENTRICITY": 0.0141862, "INCLINATION": 86.2826, "RA_OF_ASC_NODE": 145.0488, "ARG_OF_PERICENTER": 237.4272, "MEAN_ANOMALY": 121.3155, "EPHEMERIS_TYPE": 0, "CLASSIFICATION_TYPE": "U", "NORAD_CAT_ID": 34651, "ELEMENT_SET_NO": 999, "REV_AT_EPOCH": 85746, "BSTAR": 0.0036308, "MEAN_MOTION_DOT": 9.56e-05, "MEAN_MOTION_DDOT": 0}, "tle": {"line1": "1 34651U 97051KC  25336.22215517  .00009560  00000+0  36308-2 0  9996", "line2": "2 34651  86.2826 145.0488 0141862 237.4272 121.3155 14.25531146857462"}}, "geometry": {"type": "Point", "coordinates": [-37.996131293186764, 34.437442862016745]}}, {"type": "Feature", "properties": {"norad_id": 34652, "name": "IRIDIUM 33 DEB", "group": "iridium-33-debris", "lat": 56.25555215447902, "lon": -10.316146525386088, "alt_km": 679.8664236445802, "timestamp": "2025-12-03T08:58:46.387569+00:00", "meta": {"OBJECT_NAME": "IRIDIUM 33 DEB", "OBJECT_ID": "1997-051KD", "EPOCH": "2025-12-02T12:03:44.445600", "MEAN_MOTION": 14.61898676, "ECCENTRICITY": 0.00270627, "INCLINATION": 86.3312, "RA_OF_ASC_NODE": 344.5601, "ARG_OF_PERICENTER": 334.9096, "MEAN_ANOMALY": 177.4047, "EPHEMERIS_TYPE": 0, "CLASSIFICATION_TYPE": "U", "NORAD_CAT_ID": 34652, "ELEMENT_SET_NO": 999, "REV_AT_EPOCH": 88334, "BSTAR": 0.0012168376, "MEAN_MOTION_DOT": 6.139e-05, "MEAN_MOTION_DDOT": 0}, "tle": {"line1": "1 34652U 97051KD  25336.50259775  .00006139  00000+0  12168-2 0  9999", "line2": "2 34652  86.3312 344.5601 0027062 334.9096 177.4047 14.61898676883341"}}, "geometry": {"type": "Point", "coordinates": [-10.316146525386088, 56.25555215447902]}}, {"type": "Feature", "properties": {"norad_id": 34690, "name": "IRIDIUM 33 DEB", "group": "iridium-33-debris", "lat": 27.685903681518514, "lon": -140.84233042902608, "alt_km": 708.9614714574127, "timestamp": "2025-12-03T08:58:46.387580+00:00", "meta": {"OBJECT_NAME": "IRIDIUM 33 DEB", "OBJECT_ID": "1997-051KM", "EPOCH": "2025-12-02T11:05:34.177632", "MEAN_MOTION": 14.5503094, "ECCENTRICITY": 0.00118516, "INCLINATION": 86.3794, "RA_OF_ASC_NODE": 41.4576, "ARG_OF_PERICENTER": 59.8454, "MEAN_ANOMALY": 358.3612, "EPHEMERIS_TYPE": 0, "CLASSIFICATION_TYPE": "U", "NORAD_CAT_ID": 34690, "ELEMENT_SET_NO": 999, "REV_AT_EPOCH": 87945, "BSTAR": 0.00062693819, "MEAN_MOTION_DOT": 2.723e-05, "MEAN_MOTION_DDOT": 0}, "tle": {"line1": "1 34690U 97051KM  25336.46220113  .00002723  00000+0  62694-3 0  9995", "line2": "2 34690  86.3794  41.4576 0011851  59.8454 358.3612 14.55030940879451"}}, "geometry": {"type": "Point", "coordinates": [-140.84233042902608, 27.685903681518514]}}, {"type": "Feature", "properties": {"norad_id": 34693, "name": "IRIDIUM 33 DEB", "group": "iridium-33-debris", "lat": -37.41729646208, "lon": -54.36847126496124, "alt_km": 501.00857804806947, "timestamp": "2025-12-03T08:58:46.387590+00:00", "meta": {"OBJECT_NAME": "IRIDIUM 33 DEB", "OBJECT_ID": "1997-051KQ", "EPOCH": "2025-12-02T22:20:48.476832", "MEAN_MOTION": 15.24488571, "ECCENTRICITY": 0.0016088, "INCLINATION": 86.3048, "RA_OF_ASC_NODE": 308.6845, "ARG_OF_PERICENTER": 67.5745, "MEAN_ANOMALY": 345.3417, "EPHEMERIS_TYPE": 0, "CLASSIFICATION_TYPE": "U", "NORAD_CAT_ID": 34693, "ELEMENT_SET_NO": 999, "REV_AT_EPOCH": 88765, "BSTAR": 0.0056535, "MEAN_MOTION_DOT": 0.00141805, "MEAN_MOTION_DDOT": 0}, "tle": {"line1": "1 34693U 97051KQ  25336.93111663  .00141805  00000+0  56535-2 0  9990", "line2": "2 34693  86.3048 308.6845 0016088  67.5745 345.3417 15.24488571887653"}}, "geometry": {"type": "Point", "coordinates": [-54.36847126496124, -37.41729646208]}}, {"type": "Feature", "properties": {"norad_id": 34696, "name": "IRIDIUM 33 DEB", "group": "iridium-33-debris", "lat": -33.1374751695633, "lon": 29.380587406450307, "alt_km": 717.9253185582274, "timestamp": "2025-12-03T08:58:46.387600+00:00", "meta": {"OBJECT_NAME": "IRIDIUM 33 DEB", "OBJECT_ID": "1997-051KT", "EPOCH": "2025-12-02T22:27:23.457888", "MEAN_MOTION": 14.64186349, "ECCENTRICITY": 0.0074931, "INCLINATION": 86.1858, "RA_OF_ASC_NODE": 32.0803, "ARG_OF_PERICENTER": 200.6573, "MEAN_ANOMALY": 335.8637, "EPHEMERIS_TYPE": 0, "CLASSIFICATION_TYPE": "U", "NORAD_CAT_ID": 34696, "ELEMENT_SET_NO": 999, "REV_AT_EPOCH": 86529, "BSTAR": 0.0077467, "MEAN_MOTION_DOT": 0.0004269, "MEAN_MOTION_DDOT": 0}, "tle": {"line1": "1 34696U 97051KT  25336.93568817  .00042690  00000+0  77467-2 0  9999", "line2": "2 34696  86.1858  32.0803 0074931 200.6573 335.8637 14.64186349865290"}}, "geometry": {"type": "Point", "coordinates": [29.380587406450307, -33.1374751695633]}}, {"type": "Feature", "properties": {"norad_id": 34765, "name": "IRIDIUM 33 DEB", "group": "iridium-33-debris", "lat": -46.83558079009855, "lon": 32.86682048814765, "alt_km": 760.0100687200702, "timestamp": "2025-12-03T08:58:46.387610+00:00", "meta": {"OBJECT_NAME": "IRIDIUM 33 DEB", "OBJECT_ID": "1997-051LJ", "EPOCH": "2025-12-02T05:08:41.186976", "MEAN_MOTION": 14.40418764, "ECCENTRICITY": 0.00145508, "INCLINATION": 86.3401, "RA_OF_ASC_NODE": 37.2773, "ARG_OF_PERICENTER": 249.3549, "MEAN_ANOMALY": 173.3707, "EPHEMERIS_TYPE": 0, "CLASSIFICATION_TYPE": "U", "NORAD_CAT_ID": 34765, "ELEMENT_SET_NO": 999, "REV_AT_EPOCH": 87462, "BSTAR": 0.00049787542, "MEAN_MOTION_DOT": 1.602e-05, "MEAN_MOTION_DDOT": 0}, "tle": {"line1": "1 34765U 97051LJ  25336.21436559  .00001602  00000+0  49788-3 0  9998", "line2": "2 34765  86.3401  37.2773 0014550 249.3549 173.3707 14.40418764874623"}}, "geometry": {"type": "Point", "coordinates": [32.86682048814765, -46.83558079009855]}}]}